ORBCOMM FM24            
1 25478U 98053D   24186.52097318  .00001435  00000+0  53879-3 0  9994
2 25478  45.0078 114.9499 0002297 313.7970  46.2688 14.35901855347716
ORBCOMM FM25            
1 25479U 98053E   24185.86186300  .00001608  00000+0  59800-3 0  9993
2 25479  45.0070 116.3120 0004874 310.8841  49.1583 14.35879526347630
ORBCOMM FM26            
1 25480U 98053F   24186.16849291  .00001408  00000+0  53572-3 0  9992
2 25480  45.0072 109.2201 0006967 327.4253  32.6163 14.35292515347718
ORBCOMM FM27            
1 25481U 98053G   24185.85047795  .00001972  00000+0  72251-3 0  9998
2 25481  45.0051 116.6283 0001330 351.0004   9.0819 14.35869457347568
ORBCOMM FM28            
1 25482U 98053H   24186.30769386  .00001504  00000+0  55799-3 0  9996
2 25482  45.0074  52.7560 0004009   1.6321 358.4539 14.36289773348477
ORBCOMM FM30            
1 25980U 99065A   24186.47326286  .00001287  00000+0  49262-3 0  9995
2 25980  45.0327 293.3665 0004226  72.8963 287.2347 14.35434717284983
ORBCOMM FM31            
1 25981U 99065B   24185.74295748  .00001312  00000+0  50132-3 0  9990
2 25981  45.0240 290.4673 0002070 120.0565 240.0488 14.35425252283902
ORBCOMM FM32            
1 25982U 99065C   24185.83194363  .00001404  00000+0  54371-3 0  9993
2 25982  45.0173 304.2380 0004438 106.4293 253.7042 14.34430616284540
